IRIDIUM 921 [-]         
1 24873U 97034E   23270.44790417  .00020041  00000+0  79050-3 0  9997
2 24873  86.3850  57.0415 0005950 157.8143 202.3362 15.25431616434818
IRIDIUM 26 [-]          
1 24903U 97043A   23270.54888364  .00000725  00000+0  24278-3 0  9990
2 24903  86.4020  14.3509 0002216  87.9815 272.1635 14.36009323366496
IRIDIUM 22 [-]          
1 24907U 97043E   23270.54180677  .00000761  00000+0  26090-3 0  9990
2 24907  86.4021  17.3795 0002196  93.6460 266.4987 14.34917670366596
DUMMY MASS 1 [-]        
1 24925U 97048A   23270.49940689  .00000890  00000+0  99142-4 0  9998
2 24925  86.3314  65.7651 0005904 194.3636 165.7421 14.85836179411744
DUMMY MASS 2 [-]        
1 24926U 97048B   23270.49344332  .00000868  00000+0  97182-4 0  9999
2 24926  86.3311  67.2658 0006266 208.9754 151.1123 14.85597550411533
IRIDIUM 29 [-]          
1 24944U 97051A   23270.48882438  .00000660  00000+0  22337-3 0  9995
2 24944  86.3961  47.3858 0002265  97.0481 263.0973 14.35379295363052
IRIDIUM 33 [-]          
1 24946U 97051C   23270.48632013  .00000599  00000+0  20730-3 0  9995
2 24946  86.3878  46.6648 0007016 344.6721  15.4261 14.34118662362615
IRIDIUM 28 [-]          
1 24948U 97051E   23270.73575424  .00000866  00000+0  28985-3 0  9994
2 24948  86.3972  45.1592 0002011  80.8747 279.2677 14.36304180363673
